[{"OBJECT_NAME":"STARLINK-1423","OBJECT_ID":"2020-035BF","EPOCH":"2026-03-09T06:28:42.791808","MEAN_MOTION":15.52734851,"ECCENTRICITY":0.00077383,"INCLINATION":53.0523,"RA_OF_ASC_NODE":24.0364,"ARG_OF_PERICENTER":108.2998,"MEAN_ANOMALY":251.8853,"EPHEMERIS_TYPE":0,"CLASSIFICATION_TYPE":"U","NORAD_CAT_ID":45710,"ELEMENT_SET_NO":999,"REV_AT_EPOCH":31928,"BSTAR":0.0016417081,"MEAN_MOTION_DOT":0.00104188,"MEAN_MOTION_DDOT":0},{"OBJECT_NAME":"LEOPARD","OBJECT_ID":"1998-067YD","EPOCH":"2026-03-09T14:18:57.773664","MEAN_MOTION":15.51994489,"ECCENTRICITY":0.0007827,"INCLINATION":51.632,"RA_OF_ASC_NODE":72.287,"ARG_OF_PERICENTER":153.8657,"MEAN_ANOMALY":206.2729,"EPHEMERIS_TYPE":0,"CLASSIFICATION_TYPE":"U","NORAD_CAT_ID":67687,"ELEMENT_SET_NO":999,"REV_AT_EPOCH":469,"BSTAR":0.00066276,"MEAN_MOTION_DOT":0.00040393,"MEAN_MOTION_DDOT":0}]
